[{"OBJECT_NAME":"TUSUR GO (RS78S)","OBJECT_ID":"2024-199AZ","EPOCH":"2026-03-09T22:48:41.341536","MEAN_MOTION":15.7089308,"ECCENTRICITY":0.00036127,"INCLINATION":97.3018,"RA_OF_ASC_NODE":306.7757,"ARG_OF_PERICENTER":269.724,"MEAN_ANOMALY":90.3609,"EPHEMERIS_TYPE":0,"CLASSIFICATION_TYPE":"U","NORAD_CAT_ID":61782,"ELEMENT_SET_NO":999,"REV_AT_EPOCH":11926,"BSTAR":0.0013446465,"MEAN_MOTION_DOT":0.00170473,"MEAN_MOTION_DDOT":0},{"OBJECT_NAME":"STARLINK-11726 [DTC]","OBJECT_ID":"2025-107D","EPOCH":"2026-03-09T11:04:28.865280","MEAN_MOTION":15.70873714,"ECCENTRICITY":0.00011093,"INCLINATION":43.0002,"RA_OF_ASC_NODE":99.476,"ARG_OF_PERICENTER":300.7997,"MEAN_ANOMALY":59.2762,"EPHEMERIS_TYPE":0,"CLASSIFICATION_TYPE":"U","NORAD_CAT_ID":64067,"ELEMENT_SET_NO":999,"REV_AT_EPOCH":4726,"BSTAR":0.0015188862,"MEAN_MOTION_DOT":0.00199475,"MEAN_MOTION_DDOT":0}]
